NORAD_CAT_ID,OBJECT_NAME,OBJECT_TYPE,EPOCH,MEAN_MOTION,ECCENTRICITY,INCLINATION,RA_OF_ASC_NODE,ARG_OF_PERICENTER,MEAN_ANOMALY,BSTAR,MEAN_MOTION_DOT,MEAN_MOTION_DDOT,TLE_LINE0,TLE_LINE1,TLE_LINE2,SEMIMAJOR_AXIS,PERIOD,APOGEE,PERIGEE,DECAYED
50812.0,STARLINK-3338,PAYLOAD,2022-04-06 06:00:02,15.49877082,0.0001838,53.2141,118.6604,43.1616,175.9748,-0.00017655,-0.00010456,0.0,0 STARLINK-3338,1 50812U 22001K   22096.25002315 -.00010456  00000-0 -17655-3 0  9993,2 50812  53.2141 118.6604 0001838  43.1616 175.9748 15.49877082 15324,6795.222,92.911,418.336,415.838,0.0
50812.0,STARLINK-3338,PAYLOAD,2022-04-06 14:00:01,15.49871117,0.0001944,53.2141,117.0681,39.0099,240.9546,0.00042382,0.00023664,0.0,0 STARLINK-3338,1 50812U 22001K   22096.58334491  .00023664  00000-0  42382-3 0  9990,2 50812  53.2141 117.0681 0001944  39.0099 240.9546 15.49871117  3698,6795.24,92.911,418.426,415.784,0.0
50812.0,STARLINK-3338,PAYLOAD,2022-04-06 22:00:00,15.49866516,0.0001809,53.2145,115.473,45.2293,295.6619,0.0011633,0.00066089,0.0,0 STARLINK-3338,1 50812U 22001K   22096.91667824  .00066089  00000-0  11633-2 0  9998,2 50812  53.2145 115.4730 0001809  45.2293 295.6619 15.49866516 15434,6795.253000000002,92.911,418.347,415.889,0.0
50812.0,STARLINK-3338,PAYLOAD,2022-04-07 14:00:01,15.50043016,0.0002163,53.2154,112.2858,41.0914,61.6341,-0.005956,-0.00326646,0.0,0 STARLINK-3338,1 50812U 22001K   22097.58334491 -.00326646  00000-0 -59560-2 0  9994,2 50812  53.2154 112.2858 0002163  41.0914  61.6341 15.50043016  3690,6794.736999999999,92.901,418.072,415.133,0.0
50812.0,STARLINK-3338,PAYLOAD,2022-04-07 20:00:01,15.49746946,0.0001538,53.2166,111.0865,42.7377,15.7957,-0.0060008999999999,-0.00325675,0.0,0 STARLINK-3338,1 50812U 22001K   22097.83334491 -.00325675  00000-0 -60009-2 0  9993,2 50812  53.2166 111.0865 0001538  42.7377  15.7957 15.49746946 15577,6795.603,92.918,418.513,416.423,0.0
50812.0,STARLINK-3338,PAYLOAD,2022-04-07 22:00:00,15.49492965,0.0001792,53.2164,110.6867,33.735,130.0467,0.0012474,0.00070003,0.0,0 STARLINK-3338,1 50812U 22001K   22097.91667824  .00070003  00000-0  12474-2 0  9994,2 50812  53.2164 110.6867 0001792  33.7350 130.0467 15.49492965  3657,6796.345,92.934,419.42800000000005,416.992,0.0
50812.0,STARLINK-3338,PAYLOAD,2022-04-08 14:00:03,15.49118583,0.0001520999999999,53.2171,107.4977,45.4703,239.2147,-0.0141639999999999,-0.00724255,0.0,0 STARLINK-3338,1 50812U 22001K   22098.58336806 -.00724255  00000-0 -14164-1 0  9995,2 50812  53.2171 107.4977 0001521  45.4703 239.2147 15.49118583 15687,6797.44,92.956,420.339,418.271,0.0
50812.0,STARLINK-3338,PAYLOAD,2022-04-08 22:00:00,15.48604786,0.0001645,53.2172,105.9033,34.3201,309.9187,-0.014295,-0.00718301,0.0,0 STARLINK-3338,1 50812U 22001K   22098.91667824 -.00718301  00000-0 -14295-1 0  9999,2 50812  53.2172 105.9033 0001645  34.3201 309.9187 15.48604786  3669,6798.944,92.987,421.927,419.69,0.0
50812.0,STARLINK-3338,PAYLOAD,2022-04-09 14:00:01,15.47586658,0.0001597,53.2171,102.7229,39.6271,62.1323,-0.014858,-0.00720213,0.0,0 STARLINK-3338,1 50812U 22001K   22099.58334491 -.00720213  00000-0 -14858-1 0  9994,2 50812  53.2171 102.7229 0001597  39.6271  62.1323 15.47586658  3689,6801.925,93.048,424.877,422.704,0.0
50812.0,STARLINK-3338,PAYLOAD,2022-04-09 22:00:00,15.4707762,0.0001671,53.2171,101.132,42.0032,117.5991,-0.015182,-0.00722762,0.0,0 STARLINK-3338,1 50812U 22001K   22099.91667824 -.00722762  00000-0 -15182-1 0  9992,2 50812  53.2171 101.1320 0001671  42.0032 117.5991 15.47077620 15896,6803.417,93.079,426.419,424.145,0.0
50812.0,STARLINK-3338,PAYLOAD,2022-04-10 14:00:01,15.46058624,0.000153,53.2172,97.9588,47.2158,226.2309,-0.015758,-0.00723977,0.0,0 STARLINK-3338,1 50812U 22001K   22100.58334491 -.00723977  00000-0 -15758-1 0  9997,2 50812  53.2172  97.9588 0001530  47.2158 226.2309 15.46058624  3682,6806.406,93.14,429.31300000000016,427.23,0.0
50812.0,STARLINK-3338,PAYLOAD,2022-04-10 22:00:00,15.45545002,0.0001495,53.2172,96.3717,42.7579,286.6946,-0.015893,-0.00717821,0.0,0 STARLINK-3338,1 50812U 22001K   22100.91667824 -.00717821  00000-0 -15893-1 0  9994,2 50812  53.2172  96.3717 0001495  42.7579 286.6946 15.45545002  3683,6807.9140000000025,93.171,430.797,428.761,0.0
50812.0,STARLINK-3338,PAYLOAD,2022-04-11 04:00:01,15.4516359,0.0001828,53.2174,95.1847,36.5454,244.5709,-0.0161289999999999,-0.00718942,0.0,0 STARLINK-3338,1 50812U 22001K   22101.16668981 -.00718942  00000-0 -16129-1 0  9995,2 50812  53.2174  95.1847 0001828  36.5454 244.5709 15.45163590 16085,6809.034000000002,93.194,432.144,429.655,0.0
50812.0,STARLINK-3338,PAYLOAD,2022-04-11 14:00:01,15.44526694,0.0001636,53.2172,93.2058,36.5369,43.083,-0.016506,-0.00719748,0.0,0 STARLINK-3338,1 50812U 22001K   22101.58334491 -.00719748  00000-0 -16506-1 0  9991,2 50812  53.2172  93.2058 0001636  36.5369  43.0830 15.44526694  3684,6810.906,93.232,433.885,431.657,0.0
50812.0,STARLINK-3338,PAYLOAD,2022-04-11 22:00:00,15.44017237,0.000179,53.2174,91.6225,36.3297,97.4562,-0.016826,-0.00720967,0.0,0 STARLINK-3338,1 50812U 22001K   22101.91667824 -.00720967  00000-0 -16826-1 0  9997,2 50812  53.2174  91.6225 0001790  36.3297  97.4562 15.44017237  3664,6812.404,93.263,435.489,433.05,0.0
50812.0,STARLINK-3338,PAYLOAD,2022-04-12 04:00:00,15.43634513,0.0001963,53.2175,90.4384,29.4531,54.5538,-0.017037,-0.0072061,0.0,0 STARLINK-3338,1 50812U 22001K   22102.16667824 -.00720610  00000-0 -17037-1 0  9995,2 50812  53.2175  90.4384 0001963  29.4531  54.5538 15.43634513 16240,6813.53,93.286,436.733,434.0580000000001,0.0
50812.0,STARLINK-3338,PAYLOAD,2022-04-12 14:00:01,15.42998118,0.0001641,53.2173,88.4635,45.4418,194.8355,-0.01746,-0.00722512,0.0,0 STARLINK-3338,1 50812U 22001K   22102.58334491 -.00722512  00000-0 -17460-1 0  9995,2 50812  53.2173  88.4635 0001641  45.4418 194.8355 15.42998118  3692,6815.404,93.325,438.387,436.15,0.0
50812.0,STARLINK-3338,PAYLOAD,2022-04-12 22:00:00,15.42385085,0.000187,53.2168,86.8853,42.0583,250.5979,-0.014083,-0.00573858,0.0,0 STARLINK-3338,1 50812U 22001K   22102.91667824 -.00573858  00000-0 -14083-1 0  9996,2 50812  53.2168  86.8853 0001870  42.0583 250.5979 15.42385085  3640,6817.209,93.362,440.349,437.8,0.0
50812.0,STARLINK-3338,PAYLOAD,2022-04-13 04:00:00,15.42102354,0.0001909,53.2175,85.7027,36.8445,204.6036,-0.017831,-0.0071641,0.0,0 STARLINK-3338,1 50812U 22001K   22103.16667824 -.00716410  00000-0 -17831-1 0  9991,2 50812  53.2175  85.7027 0001909  36.8445 204.6036 15.42102354 16396,6818.043000000002,93.379,441.209,438.606,0.0
50812.0,STARLINK-3338,PAYLOAD,2022-04-13 14:00:03,15.41467006,0.0001511,53.2173,83.7323,39.7995,355.749,-0.018317,-0.00720042,0.0,0 STARLINK-3338,1 50812U 22001K   22103.58336806 -.00720042  00000-0 -18317-1 0  9996,2 50812  53.2173  83.7323 0001511  39.7995 355.7490 15.41467006  3690,6819.916,93.418,442.811,440.75,0.0
50812.0,STARLINK-3338,PAYLOAD,2022-04-13 22:00:00,15.40956055,0.0001858,53.2175,82.1567,32.2235,53.6859,-0.01857,-0.00717846,0.0,0 STARLINK-3338,1 50812U 22001K   22103.91667824 -.00717846  00000-0 -18570-1 0  9999,2 50812  53.2175  82.1567 0001858  32.2235  53.6859 15.40956055  3682,6821.4230000000025,93.448,444.556,442.021,0.0
50812.0,STARLINK-3338,PAYLOAD,2022-04-14 06:00:00,15.40447418,0.0002037,53.2172,80.5854,32.041,103.7426,-0.018962,-0.0072048999999999,0.0,0 STARLINK-3338,1 50812U 22001K   22104.25001157 -.00720490  00000-0 -18962-1 0  9992,2 50812  53.2172  80.5854 0002037  32.0410 103.7426 15.40447418 16569,6822.925,93.479,446.18,443.4,0.0
50812.0,STARLINK-3338,PAYLOAD,2022-04-14 14:00:01,15.39937484,0.0001626999999999,53.2172,79.0122,47.38399999999999,137.6633,-0.019286,-0.00720426,0.0,0 STARLINK-3338,1 50812U 22001K   22104.58334491 -.00720426  00000-0 -19286-1 0  9997,2 50812  53.2172  79.0122 0001627  47.3840 137.6633 15.39937484  3679,6824.431,93.51,447.406,445.186,0.0
50812.0,STARLINK-3338,PAYLOAD,2022-04-14 22:00:00,15.3942687,0.0001879,53.2173,77.4401,37.762,195.9359,-0.019548,-0.00718191,0.0,0 STARLINK-3338,1 50812U 22001K   22104.91667824 -.00718191  00000-0 -19548-1 0  9990,2 50812  53.2173  77.4401 0001879  37.7620 195.9359 15.39426870  3674,6825.94,93.541,449.088,446.522,0.0
50812.0,STARLINK-3338,PAYLOAD,2022-04-15 04:46:50,15.39575593,0.0001501,53.2151,76.1276,32.7181,327.3917,-0.0093157,-0.00355644,0.0,0 STARLINK-3338,1 50812U 22001K   22105.19919007 -.00355644  00000-0 -93157-2 0  9993,2 50812  53.2151  76.1276 0001501  32.7181 327.3917 15.39575593 16712,6825.5,93.532,448.39,446.341,0.0
50812.0,STARLINK-3338,PAYLOAD,2022-04-15 14:00:01,15.38408302,0.0001495,53.2173,74.3028,44.3609,284.7984,-0.020326,-0.00721779,0.0,0 STARLINK-3338,1 50812U 22001K   22105.58334491 -.00721779  00000-0 -20326-1 0  9997,2 50812  53.2173  74.3028 0001495  44.3609 284.7984 15.38408302 16775,6828.953,93.603,451.839,449.797,0.0
50812.0,STARLINK-3338,PAYLOAD,2022-04-15 22:00:00,15.37895639,0.0001597,53.2173,72.7347,39.5803,336.392,-0.0205,-0.00716286,0.0,0 STARLINK-3338,1 50812U 22001K   22105.91667824 -.00716286  00000-0 -20500-1 0  9994,2 50812  53.2173  72.7347 0001597  39.5803 336.3920 15.37895639  3655,6830.47,93.634,453.426,451.244,0.0
50812.0,STARLINK-3338,PAYLOAD,2022-04-16 14:00:01,15.36876914,0.0001721999999999,53.2173,69.6045,37.3552,70.4017,-0.021269,-0.00718696,0.0,0 STARLINK-3338,1 50812U 22001K   22106.58334491 -.00718696  00000-0 -21269-1 0  9999,2 50812  53.2173  69.6045 0001722  37.3552  70.4017 15.36876914  3671,6833.488,93.697,456.53,454.176,0.0
50812.0,STARLINK-3338,PAYLOAD,2022-04-16 22:00:01,15.3636645,0.0001968,53.2175,68.04,34.9124,117.8824,-0.021577,-0.00717281,0.0,0 STARLINK-3338,1 50812U 22001K   22106.91668981 -.00717281  00000-0 -21577-1 0  9991,2 50812  53.2175  68.0400 0001968  34.9124 117.8824 15.36366450 16979,6835.002,93.728,458.212,455.522,0.0
